NORAD_CAT_ID,OBJECT_NAME,OBJECT_TYPE,EPOCH,MEAN_MOTION,ECCENTRICITY,INCLINATION,RA_OF_ASC_NODE,ARG_OF_PERICENTER,MEAN_ANOMALY,BSTAR,MEAN_MOTION_DOT,MEAN_MOTION_DDOT,TLE_LINE0,TLE_LINE1,TLE_LINE2,SEMIMAJOR_AXIS,PERIOD,APOGEE,PERIGEE,DECAYED
51778.0,STARLINK-3615,PAYLOAD,2023-02-07 14:00:01,15.10448892,0.0001665,53.2188,344.3893,93.3722,202.7204,0.0020402,0.00033808,0.0,0 STARLINK-3615,1 51778U 22017L   23038.58334491  .00033808  00000-0  20402-2 0  9995,2 51778  53.2188 344.3893 0001665  93.3722 202.7204 15.10448892  1308,6912.967,95.336,535.983,533.681,0.0
51778.0,STARLINK-3615,PAYLOAD,2023-02-07 22:00:00,15.10505544,0.0001623,53.2189,342.8892,99.748,209.8749,-0.000225,-4.04e-05,0.0,0 STARLINK-3615,1 51778U 22017L   23038.91667824 -.00004040  00000-0 -22500-3 0  9991,2 51778  53.2189 342.8892 0001623  99.7480 209.8749 15.10505544  1306,6912.794,95.332,535.781,533.537,0.0
51778.0,STARLINK-3615,PAYLOAD,2023-02-08 00:00:00,15.10539919,0.000156,53.2188,342.5148,97.0783,305.9345,-0.0054842,-0.00090605,0.0,0 STARLINK-3615,1 51778U 22017L   23039.00001157 -.00090605  00000-0 -54842-2 0  9998,2 51778  53.2188 342.5148 0001560  97.0783 305.9345 15.10539919 54269,6912.689,95.33,535.633,533.476,0.0
51778.0,STARLINK-3615,PAYLOAD,2023-02-08 14:00:01,15.10445586,0.0001236,53.2187,339.8891,106.5342,230.2387,0.0027119,0.00045102,0.0,0 STARLINK-3615,1 51778U 22017L   23039.58334491  .00045102  00000-0  27119-2 0  9998,2 51778  53.2187 339.8891 0001236 106.5342 230.2387 15.10445586  1308,6912.977,95.336,535.697,533.988,0.0
51778.0,STARLINK-3615,PAYLOAD,2023-02-08 16:00:00,15.1043337,0.0001232,53.2186,339.5138,110.4453,319.7164,0.0053624,0.00090007,0.0,0 STARLINK-3615,1 51778U 22017L   23039.66667824  .00090007  00000-0  53624-2 0  9990,2 51778  53.2186 339.5138 0001232 110.4453 319.7164 15.10433370 54369,6913.014,95.337,535.731,534.028,0.0
51778.0,STARLINK-3615,PAYLOAD,2023-02-08 22:00:00,15.10511638,0.0001226,53.2187,338.3893,106.148,244.1578,-0.00028358,-5.015e-05,0.0,0 STARLINK-3615,1 51778U 22017L   23039.91667824 -.00005015  00000-0 -28358-3 0  9992,2 51778  53.2187 338.3893 0001226 106.1480 244.1578 15.10511638  1300,6912.776,95.332,535.488,533.793,0.0
51778.0,STARLINK-3615,PAYLOAD,2023-02-09 08:00:01,15.10437406,0.0001134,53.2179,336.5153,78.6508,18.6713,0.0016347,0.00026996,0.0,0 STARLINK-3615,1 51778U 22017L   23040.33334491  .00026996  00000-0  16347-2 0  9994,2 51778  53.2179 336.5153 0001134  78.6508  18.6713 15.10437406 54462,6913.002,95.337,535.651,534.083,0.0
51778.0,STARLINK-3615,PAYLOAD,2023-02-09 12:00:00,15.10449322,0.000114,53.2179,335.7643,83.6357,200.4455,0.0012271,0.00020179,0.0,0 STARLINK-3615,1 51778U 22017L   23040.50001157  .00020179  00000-0  12271-2 0  9992,2 51778  53.2179 335.7643 0001140  83.6357 200.4455 15.10449322  1301,6912.966,95.336,535.619,534.043,0.0
51778.0,STARLINK-3615,PAYLOAD,2023-02-09 23:27:07,15.10500285,0.0001186,53.2184,333.6168,101.7277,258.3849,0.0029097,0.0004851,0.0,0 STARLINK-3615,1 51778U 22017L   23040.97716783  .00048510  00000-0  29097-2 0  9994,2 51778  53.2184 333.6168 0001186 101.7277 258.3849 15.10500285 54560,6912.81,95.333,535.495,533.855,0.0
51778.0,STARLINK-3615,PAYLOAD,2023-02-10 00:00:00,15.10530372,0.0001196,53.2178,333.5148,77.1018,47.2811,-0.004975,-0.00082291,0.0,0 STARLINK-3615,1 51778U 22017L   23041.00001157 -.00082291  00000-0 -49750-2 0  9995,2 51778  53.2178 333.5148 0001196  77.1018  47.2811 15.10530372  1308,6912.718,95.331,535.41,533.757,0.0
51778.0,STARLINK-3615,PAYLOAD,2023-02-10 02:37:41,15.10500376,0.0001187,53.2185,333.0211,83.4474,276.6654,0.0020053,0.00033269,0.0,0 STARLINK-3615,1 51778U 22017L   23041.10950332  .00033269  00000-0  20053-2 0  9998,2 51778  53.2185 333.0211 0001187  83.4474 276.6654 15.10500376 52937,6912.81,95.333,535.495,533.854,0.0
51778.0,STARLINK-3615,PAYLOAD,2023-02-10 12:09:22,15.10493805,0.0001821,53.2188,331.2335,80.6154,279.5045,0.0018465,0.00030595,0.0,0 STARLINK-3615,1 51778U 22017L   23041.50651155  .00030595  00000-0  18465-2 0  9996,2 51778  53.2188 331.2335 0001821  80.6154 279.5045 15.10493805 54640,6912.83,95.333,535.954,533.436,0.0
51778.0,STARLINK-3615,PAYLOAD,2023-02-10 23:16:20,15.10498587,0.0002221,53.2181,329.1497,70.9481,289.1752,0.0010014,0.00016427,0.0,0 STARLINK-3615,1 51778U 22017L   23041.96968549  .00016427  00000-0  10014-2 0  9994,2 51778  53.2181 329.1497 0002221  70.9481 289.1752 15.10498587 54710,6912.815,95.333,536.216,533.145,0.0
51778.0,STARLINK-3615,PAYLOAD,2023-02-11 02:26:54,15.1050354,0.0001341,53.2176,328.5533,85.5153,274.5993,0.0012163,0.00020028,0.0,0 STARLINK-3615,1 51778U 22017L   23042.10201640  .00020028  00000-0  12163-2 0  9992,2 51778  53.2176 328.5533 0001341  85.5153 274.5993 15.10503540 53088,6912.8,95.332,535.592,533.738,0.0
51778.0,STARLINK-3615,PAYLOAD,2023-02-11 19:55:00,15.1048049,0.0001064,53.2164,325.2773,93.2472,266.8643,1.543e-05,-3.6e-07,0.0,0 STARLINK-3615,1 51778U 22017L   23042.82986693 -.00000036  00000-0  15430-4 0  9999,2 51778  53.2164 325.2773 0001064  93.2472 266.8643 15.10480490 54846,6912.871,95.334,535.471,534.0,0.0
51778.0,STARLINK-3615,PAYLOAD,2023-02-12 03:51:24,15.10491652,0.0001275,53.2167,323.7883,94.2452,265.8686,0.00042663,6.82e-05,0.0,0 STARLINK-3615,1 51778U 22017L   23043.16070589  .00006820  00000-0  42663-3 0  9998,2 51778  53.2167 323.7883 0001275  94.2452 265.8686 15.10491652 54890,6912.837,95.333,535.583,533.82,0.0
51778.0,STARLINK-3615,PAYLOAD,2023-02-12 18:08:59,15.10460681,0.0002733,53.217,321.1106,72.1291,288.0,-0.00015765,-2.916e-05,0.0,0 STARLINK-3615,1 51778U 22017L   23043.75624218 -.00002916  00000-0 -15765-3 0  9994,2 51778  53.2170 321.1106 0002733  72.1291 288.0000 15.10460681 54985,6912.931,95.335,536.685,532.907,0.0
51778.0,STARLINK-3615,PAYLOAD,2023-02-13 11:37:05,15.10470846,0.0001821,53.2177,317.837,61.9777,298.1399,0.00077055,0.00012556,0.0,0 STARLINK-3615,1 51778U 22017L   23044.48409564  .00012556  00000-0  77055-3 0  9999,2 51778  53.2177 317.8370 0001821  61.9777 298.1399 15.10470846 53446,6912.9,95.335,536.024,533.506,0.0
51778.0,STARLINK-3615,PAYLOAD,2023-02-14 03:29:54,15.10512625,0.0001346,53.2165,314.8551,75.5392,284.575,0.0014151,0.00023367,0.0,0 STARLINK-3615,1 51778U 22017L   23045.14576762  .00023367  00000-0  14151-2 0  9997,2 51778  53.2165 314.8551 0001346  75.5392 284.5750 15.10512625 55193,6912.773,95.332,535.568,533.707,0.0
51778.0,STARLINK-3615,PAYLOAD,2023-02-14 11:26:19,15.10486143,0.0002449,53.2156,313.3667,76.8151,283.3115,0.0012617,0.00020779,0.0,0 STARLINK-3615,1 51778U 22017L   23045.47661246  .00020779  00000-0  12617-2 0  9994,2 51778  53.2156 313.3667 0002449  76.8151 283.3115 15.10486143 55240,6912.853,95.334,536.411,533.025,0.0
51778.0,STARLINK-3615,PAYLOAD,2023-02-15 00:08:34,15.1048906,0.0001766,53.2178,310.9831,99.6549,260.4644,0.00012237,1.746e-05,0.0,0 STARLINK-3615,1 51778U 22017L   23046.00595397  .00001746  00000-0  12237-3 0  9999,2 51778  53.2178 310.9831 0001766  99.6549 260.4644 15.10489060 55328,6912.844,95.333,535.93,533.489,0.0
51778.0,STARLINK-3615,PAYLOAD,2023-02-15 22:22:31,15.1049313,0.0001705,53.2164,306.816,74.92,285.1982,0.00040363,6.436e-05,0.0,0 STARLINK-3615,1 51778U 22017L   23046.93230665  .00006436  00000-0  40363-3 0  9997,2 51778  53.2164 306.8160 0001705  74.9200 285.1982 15.10493130 53819,6912.832,95.333,535.876,533.518,0.0
51778.0,STARLINK-3615,PAYLOAD,2023-02-15 23:57:48,15.10497806,0.0001711,53.2178,306.5178,87.9576,272.1613,0.0007592,0.00012376,0.0,0 STARLINK-3615,1 51778U 22017L   23046.99847409  .00012376  00000-0  75920-3 0  9990,2 51778  53.2178 306.5178 0001711  87.9576 272.1613 15.10497806 53829,6912.818,95.333,535.866,533.5,0.0
51778.0,STARLINK-3615,PAYLOAD,2023-02-16 22:11:54,15.10152137,0.0001874,53.2168,302.3504,59.0595,301.0582,-0.0076566,-0.00124452,0.0,0 STARLINK-3615,1 51778U 22017L   23047.92493458 -.00124452  00000-0 -76566-2 0  9992,2 51778  53.2168 302.3504 0001874  59.0595 301.0582 15.10152137 53963,6913.873,95.355,537.033,534.442,0.0
51778.0,STARLINK-3615,PAYLOAD,2023-02-17 04:33:13,15.09975166,0.0001851,53.2171,301.15,126.1233,233.9931,-0.0094894,-0.0015282,0.0,0 STARLINK-3615,1 51778U 22017L   23048.18974169 -.00152820  00000-0 -94894-2 0  9998,2 51778  53.2171 301.1500 0001851 126.1233 233.9931 15.09975166 55652,6914.413,95.366,537.558,534.998,0.0
51778.0,STARLINK-3615,PAYLOAD,2023-02-17 12:29:55,15.09682097,0.0001239,53.2186,299.6709,117.6239,242.488,-0.012884,-0.00204244,0.0,0 STARLINK-3615,1 51778U 22017L   23048.52077873 -.00204244  00000-0 -12884-1 0  9998,2 51778  53.2186 299.6709 0001239 117.6239 242.4880 15.09682097 55703,6915.308,95.384,538.029,536.316,0.0
51778.0,STARLINK-3615,PAYLOAD,2023-02-17 20:26:44,15.09388546,9.57e-05,53.2184,298.1836,73.9568,286.153,-0.013632,-0.00214051,0.0,0 STARLINK-3615,1 51778U 22017L   23048.85190290 -.00214051  00000-0 -13632-1 0  9992,2 51778  53.2184 298.1836 0000957  73.9568 286.1530 15.09388546 55755,6916.204,95.403,538.731,537.407,0.0
51778.0,STARLINK-3615,PAYLOAD,2023-02-18 06:00:00,15.0881343,0.0001467,53.2164,296.3978,84.2853,279.4536,0.00099381,0.00015552,0.0,0 STARLINK-3615,1 51778U 22017L   23049.25001157  .00015552  00000-0  99381-3 0  9990,2 51778  53.2164 296.3978 0001467  84.2853 279.4536 15.08813430 55811,6917.962,95.439,540.841,538.812,0.0
51778.0,STARLINK-3615,PAYLOAD,2023-02-18 14:00:01,15.08792028,0.0001483,53.2163,294.9001,95.3702,279.9335,0.0041977,0.00067066,0.0,0 STARLINK-3615,1 51778U 22017L   23049.58334491  .00067066  00000-0  41977-2 0  9990,2 51778  53.2163 294.9001 0001483  95.3702 279.9335 15.08792028  1301,6918.027,95.441,540.918,538.866,0.0
51778.0,STARLINK-3615,PAYLOAD,2023-02-19 08:00:01,15.08852113,0.0001464,53.2157,291.5344,92.3523,39.0037,-0.0006902,-0.00011259,0.0,0 STARLINK-3615,1 51778U 22017L   23050.33334491 -.00011259  00000-0 -69020-3 0  9990,2 51778  53.2157 291.5344 0001464  92.3523  39.0037 15.08852113 55972,6917.843,95.437,540.721,538.696,0.0
